SUCHAI
1 19013U 19013A   17174.18056296  .00000000  00000-0  00000-0 0  9995
2 19013  97.4623 233.9979 0006311 290.7391 294.4331 15.22150922    06
